#dP2022  5 15 18  0  0.00000000      96 __u+U ITR00 EXT  IAC
## 2210  64800.00000000   900.00000000 59714 0.7500000000000
+  116   C06C07C08C09C10C11C12C13C14C16C19C20C21C22C23C24C25
+        C26C27C28C29C30C32C33C34C35C36C37C38C39C40C41C42C43
+        C44C45C46E02E03E04E05E07E08E09E10E11E12E13E14E15E18
+        E19E21E24E25E26E27E30E31E33E34E36G01G02G03G04G05G06
+        G07G08G09G10G11G12G13G14G15G16G17G18G19G20G21G22G23
+        G24G25G26G27G28G29G30G31G32J02J03R01R02R03R04R05R07
+        R08R09R11R12R13R14R15R17R18R19R20R21R22R24  0  0  0
++        10 10 10 10  9  9  9 10  8  8  8  7 10 10  7  8  8
++         8  8  9  8 10 10  9  9  9  9 10 11  9  8  9  8  9
++         7  9  9  9  8  8  8  7  8  8  8 10 10  9  9 11  8
++         6  7  9  9  8  9 11  8  8  9 10  8  7  7  8  8  7
++         7  9  9  7  8  7  7  8  8  8  7  8  7  8  8  7  8
++         7  7  7  7  8  8  8  8  7  9 10  8  8  8  7  8  9
++         9  9  8  8  9  9  9  8  9  9  9  9  9  8  0  0  0
%c M  cc GPS ccc cccc cccc cccc cccc ccccc ccccc ccccc ccccc
%c cc cc ccc ccc cccc cccc cccc cccc ccccc ccccc ccccc ccccc
%f  0.0000000  0.000000000  0.00000000000  0.000000000000000
%f  0.0000000  0.000000000  0.00000000000  0.000000000000000
%i    0    0    0    0      0      0      0      0         0
%i    0    0    0    0      0      0      0      0         0
/* IAC                                ULTRA-RAPID PREDICTION
/* S/V CLOCKS ARE ALIGNED TO GNSS TIME                      
/* G:C1WC2W R:C1PC2P E:C1XC5X C:C2IC6I J:C1CC2S             
/* PCV:IGS14_2196 OL/AL:FES2004  NONE     YN ORB:CoN CLK:CoN
*  2022 05 15 18 15  0.00000000
PC06  -3436.561589  25685.621374  33320.783375     -9.014845
PC07 -18099.678720  33246.734354 -18738.284574   -170.477373
PC08  -5565.444112  39701.316559 -12835.759302    314.369125
PC09   5361.769258  29086.854990  30593.467988   -790.421551
PC10 -10639.775786  33109.608800 -23905.815540    132.097260
PC11   1262.483487  16988.224908 -22039.446004    354.143622
PC12 -16973.091465   6931.587849 -21013.134142   -615.642890
PC13   -355.448899  41676.619290  -5185.936854    -31.941392
PC14  -8758.218375  20297.346272  17093.739436    475.654424
PC16  -6540.753138  23827.652005  34368.445700    131.560624
PC19  -1304.637821 -17281.132833 -21835.815319    869.650151
PC20  15904.112722 -20057.740366 -11051.340937   -916.271519
PC21 -24694.761606  10924.111783  -7077.512617   -296.605559
PC22 -18504.240182  -4399.464950 -20424.579048   -970.148989
PC23  14386.156831  15090.826506 -18543.212761   -930.142350
PC24  -8196.416738  22940.722452  13584.874978   -964.837472
PC25   5737.774797  26933.351466  -4459.737210   -736.221879
PC26 -15314.378345   7075.119472  22214.947562    737.424904
PC27  23162.326456   -407.278043  15547.471889    723.676336
PC28  24767.029841  12847.409848   -532.740000     67.112711
PC29 -12253.086702 -18480.100719  16929.086821    555.077130
PC30   8436.557421 -13595.725932  22852.754816    498.532541
PC32  24607.402135 -11025.396903   7177.618374   -963.321637
PC33   1314.752559  17369.782756  21816.713155   -965.867200
PC34  -7354.307705  14186.188794 -22893.275541   -402.866261
PC35 -24864.410744 -12535.290676   1500.416060    275.432992
PC36  -4787.978032 -27206.693877   3984.664562   -964.293661
PC37  15697.326149  -5441.260576 -22408.332458   -911.770925
PC38 -10212.900892  36110.014083 -19059.992822    232.355881
PC39 -12326.759027  20858.282634  34534.799680     34.979539
PC40 -25596.132588  28418.542771 -17961.580420    269.308963
PC41  18180.899344   4825.296972  20667.636430   -965.972384
PC42 -16655.870360  19972.293152  10202.682471   -969.828810
PC43  11472.726320  18639.779692 -17338.713896   -923.935165
PC44 -23240.217623   1214.387311 -15390.991454    660.607115
PC45 -14387.417871 -14819.321778  18777.109447    757.825742
PC46   7200.819424 -23946.042995 -12422.416574   -326.214952
PE02  18343.905461  -1857.423926 -23163.721600    299.364154
PE03  29329.196174    395.391393   3926.136178   -558.572862
PE04 -23377.413653  11731.318628  13873.080513  -1028.595793
PE05  18142.603624  12525.663265  19758.519955   -181.343731
PE07   3409.891147 -17178.097345 -23849.941542   -668.798101
PE08  23141.995478 -11850.219733 -14129.053185   -529.620477
PE09  -3254.971761  17060.001101  23979.806786   -519.326312
PE10  -4137.962423  19076.567589 -22264.003413   -513.204640
PE11   4688.086145  24628.024964 -15767.074757   3660.781986
PE12 -12004.391163  10907.946197 -24768.338856   4612.263012
PE13  -4198.056533 -24325.857067  16323.392949    428.697865
PE14  16588.367717  -9646.691674  13491.665351  -1836.726442
PE15  12041.760128 -10719.154143  24824.540074    745.481372
PE18 -19793.720580  15208.230850 -20872.797631  -1445.343155
PE19 -28860.794764  -2067.273882  -6228.661714  -4717.238892
PE21  -8650.910742 -17282.769599  22417.645365   -734.357457
PE24  -7489.236718  27589.997829  -7644.011617   -616.616009
PE25   8461.362873  17510.342083 -22310.051306   -574.043627
PE26 -18236.163899 -23162.949825  -2643.555846  -1148.154891
PE27   6543.097452 -27525.179388   8718.709594   -299.471255
PE30  18186.658630 -20697.115746 -10848.848098   -512.864371
PE31 -17754.809376  21471.231710   9998.562203   -496.672078
PE33 -21091.525236  -9123.209005 -18651.291733   -456.605381
PE34  21077.072900   8910.840549  18764.808644   -517.202473
PE36  17853.900874  23557.814502   1694.515507   -374.081970
PG01  17234.571946   5955.377238  19144.615171    362.324422
PG02 -14880.044023 -21812.541477  -1294.244413   -653.243307
PG03  18146.258344  -5256.897365  18511.672140   -245.300547
PG04  26555.545000    924.033433  -1365.339167   -166.954252
PG05 -11559.547079 -10355.611782 -21706.537634    -81.956159
PG06  -3818.352067 -23636.828273  11471.002618    304.572774
PG07  11007.387147 -11206.201729 -20951.951792    322.091533
PG08  24869.232475   5882.923566  -7921.811195    -68.135636
PG09  22910.820976  -7559.217619 -11204.974860   -336.499651
PG10 -10726.074100  23635.818468   4987.439659   -415.690511
PG11 -12808.763119 -23106.894114  -2813.762325    -24.600190
PG12 -17048.039181      4.345769  20066.148691   -215.932501
PG13 -18409.656535 -13120.868664 -14231.752567    312.133098
PG14  12514.582500 -23073.128625   3727.732801   -108.407754
PG15 -25523.683473  -3343.684227  -7587.344352    -61.010518
PG16   6693.533931  15035.365638 -21019.673767   -501.120955
PG17   8277.475935 -13774.935860  21586.158965    613.008526
PG18 -11112.194638  10720.149923 -21605.248656    169.299423
PG19   -440.813601 -14882.051610  21746.770830    157.727048
PG20  -4950.735585 -19883.039043 -17017.004398    514.980008
PG21  19461.198747  14170.381283  12586.807603    161.091146
PG22   3637.271558  15635.593314  21601.884021    259.627137
PG23 -16488.445422  19863.701399  -6023.095729    -22.066348
PG24 -19421.952691  -8867.460666  15751.390339    240.520687
PG25 -18613.999916  14409.477951  11741.973276    325.086648
PG26   -794.604236  22525.336663 -13890.952122    205.825438
PG27  15945.617732  12548.224021 -17557.379318    203.301442
PG28   6502.046553 -22830.338459  12659.732436    357.383552
PG29 -23618.746036   4924.147964 -11235.658479   -513.949313
PG30   4206.908988 -19633.837997 -17178.274684   -527.999294
PG31   5189.480835  24233.414447   8756.241495   -177.738944
PG32  -4941.125197  14983.472711  21488.760177   -127.813791
PJ02 -31350.904224  26850.086750  13839.490315     -0.137588
PJ03 -24594.587305  17689.248099 -24723.106128     -2.171348
PR01  10437.246120   6928.346622  22224.221536      8.742624
PR02  23117.390867  -4929.312644   9714.550017    518.471038
PR03  20591.322271 -12978.876888  -7667.999911     56.696808
PR04   6751.975146 -13411.431725 -20588.887173    141.658099
PR05 -10799.761674  -6624.637153 -22118.389237     92.925667
PR07 -20095.001626  13179.012488   8532.445118     35.121144
PR08  -6448.050109  13521.932553  20700.575701    -65.139758
PR09 -11396.719479    923.788044  22822.101998     55.205402
PR11  -2203.443469  25416.956532   -445.118605     38.929667
PR12   6442.217643  17596.483626 -17273.697617     18.459881
PR13  11009.492525    620.729366 -23016.587245    -22.343610
PR14   9216.646674 -18354.689627 -15104.280026     25.700654
PR15   2070.733104 -25386.979151   1361.458453     96.101538
PR17  10291.477175  -5213.608370  22747.561422    526.317750
PR18  -4960.706890 -15010.880632  20006.840335    116.956871
PR19 -16614.635154 -17711.589516   7798.207068   -189.113465
PR20 -20277.522987  -9238.819833 -12371.858121    -70.632345
PR21  -9067.363171   6149.136656 -23043.631389   -301.489644
PR22   5777.881628  15414.388710 -19543.633029   -183.350624
PR24  20504.220496   8064.576077  12855.309944     93.893102
EOF
